COSMOS 2433 (720)       
1 32275U 07052A   25353.18973380 -.00000059  00000+0  00000+0 0  9993
2 32275  65.6796 321.9886 0005237 255.1824 104.7517  2.13104199141226
COSMOS 2432 (719)       
1 32276U 07052B   25354.42782559 -.00000052  00000+0  00000+0 0  9991
2 32276  65.6947 322.0715 0011341 314.1043 220.0986  2.13103430141274
COSMOS 2434 (721)       
1 32393U 07065A   25354.50226120  .00000100  00000+0  00000+0 0  9994
2 32393  64.3153 197.9412 0004781  71.7860 105.6785  2.13101459139962
COSMOS 2436 (723)       
1 32395U 07065C   25354.33725451  .00000101  00000+0  00000+0 0  9999
2 32395  64.3241 198.0173 0017785   9.8756 174.0477  2.13100373139919
COSMOS 2456 (730)       
1 36111U 09070A   25354.13424209 -.00000022  00000+0  00000+0 0  9995
2 36111  64.9040  77.0852 0003301 296.9564 115.2996  2.13103685124610
COSMOS 2457 (733)       
1 36112U 09070B   25353.53290315 -.00000028  00000+0  00000+0 0  9994
2 36112  64.8894  76.9529 0004579 161.1215 278.8833  2.13101086124608
COSMOS 2460 (732)       
1 36402U 10007C   25353.57133216 -.00000057  00000+0  00000+0 0  9990
2 36402  65.5260 320.5423 0002543 279.9868 189.0870  2.13106300122906
COSMOS 2476 (744)       
1 37867U 11064A   25353.25377954 -.00000030  00000+0  00000+0 0  9995
2 37867  65.1662  78.9509 0024321 234.6548 130.4776  2.13103916109937
COSMOS 2477 (745)       
1 37868U 11064B   25353.56778356 -.00000027  00000+0  00000+0 0  9997
2 37868  65.1727  79.0178 0021226 234.8822 192.0520  2.13102956109936
COSMOS 2475 (743)       
1 37869U 11064C   25353.59125692 -.00000026  00000+0  00000+0 0  9999
2 37869  65.1796  79.0372 0026449 248.8375 152.0175  2.13101629109948
COSMOS 2485 (747)       
1 39155U 13019A   25354.12239865 -.00000020  00000+0  00000+0 0  9993
2 39155  65.3174  79.6189 0024876 230.2075 129.6042  2.13103220 98462
COSMOS 2492 (754)       
1 39620U 14012A   25354.08099554 -.00000054  00000+0  00000+0 0  9995
2 39620  65.4033 320.0211 0014231 312.7815  47.0902  2.13103387 91426
COSMOS 2500 (755)       
1 40001U 14032A   25354.25310115 -.00000053  00000+0  00000+0 0  9999
2 40001  65.3390 319.7771 0007749 219.4032 140.5324  2.13106249 89640
COSMOS 2501 (702K)      
1 40315U 14075A   25353.10517885  .00000106  00000+0  00000+0 0  9998
2 40315  63.6146 196.6046 0020099 204.1838 155.7988  2.13101513 86014
COSMOS 2514 (751)       
1 41330U 16008A   25354.02769717 -.00000054  00000+0  00000+0 0  9992
2 41330  65.1296 319.1545 0011778 220.1416 139.7630  2.13102672 76804
COSMOS 2522 (752)       
1 42939U 17055A   25354.33532238  .00000101  00000+0  00000+0 0  9993
2 42939  64.0763 197.9702 0006328 223.9130 136.1120  2.13102080 64167
COSMOS 2527 (756)       
1 43508U 18053A   25352.88836008 -.00000033  00000+0  00000+0 0  9990
2 43508  65.4759  79.9259 0008836 226.7635 133.1863  2.13102316 58439
COSMOS 2529 (757)       
1 43687U 18086A   25352.51651229  .00000109  00000+0  00000+0 0  9997
2 43687  64.2922 198.6932 0007046 253.6593 106.3450  2.13102105 55434
COSMOS 2534 (758)       
1 44299U 19030A   25352.77094549  .00000108  00000+0  00000+0 0  9990
2 44299  64.3658 198.6898 0008748 284.2192  45.4012  2.13102412 51071
COSMOS 2544 (759)       
1 44850U 19088A   25354.24071622 -.00000019  00000+0  00000+0 0  9999
2 44850  65.4640  79.7074 0014136 250.1261 109.7530  2.13102097 46903
COSMOS 2545 (760)       
1 45358U 20018A   25353.02866227 -.00000061  00000+0  00000+0 0  9993
2 45358  64.4657 318.7488 0011548 249.6698 110.1972  2.13102611 44827
COSMOS 2547 (705K)      
1 46805U 20075A   25353.21682595  .00000106  00000+0  00000+0 0  9998
2 46805  64.5965 198.4802 0006125 227.9307 132.0972  2.13100175 40071
COSMOS 2557 (706K)      
1 52984U 22075A   25354.32056189 -.00000054  00000+0  00000+0 0  9995
2 52984  64.4056 320.7850 0013536 278.2438  81.5952  2.13102072 26907
COSMOS 2559 (707K)      
1 54031U 22130A   25354.13975873 -.00000056  00000+0  00000+0 0  9993
2 54031  64.3781 320.8808 0011586 191.9229 168.0425  2.13101371 24873
COSMOS 2564 (761)       
1 54377U 22161A   25354.45319900  .00000101  00000+0  00000+0 0  9998
2 54377  64.7386 198.6426 0008553 203.8695 156.1670  2.13102061 23829
COSMOS 2569 (703K)      
1 57517U 23114A   25354.46653462 -.00000018  00000+0  00000+0 0  9999
2 57517  65.1981  78.6524 0010798 287.0398  72.8764  2.13103983 18453
COSMOS 2584 (704K)      
1 63130U 25042A   25352.47611009 -.00000038  00000+0  00000+0 0  9991
2 63130  64.9790  78.9506 0007709 218.5301 141.4378  2.13103072  6191
COSMOS 2596 (708K)      
1 65590U 25206B   25354.42901951 -.00000053  00000+0  00000+0 0  9997
2 65590  64.7402 321.2078 0014070 307.0541 229.5313  2.13100474  2105
